STARLINK-2022           
1 47643U 21012Z   24241.57587409  .00002168  00000+0  16435-3 0  9996
2 47643  53.0553  37.0863 0001025  85.6868 274.4238 15.06402381196144
